ONEWEB-0634             
1 56075U 23043AF  24165.72807868  .00000163  00000+0  40025-3 0  9992
2 56075  87.9047  45.1769 0001806  68.9241 291.2082 13.15550253 59960
ONEWEB-0635             
1 56076U 23043AG  24165.72333232  .00000119  00000+0  28247-3 0  9995
2 56076  87.9044  45.2329 0001912  94.1551 265.9798 13.15548585 59994
ONEWEB-0636             
1 56077U 23043AH  24165.71540609  .00000070  00000+0  15263-3 0  9993
2 56077  87.9045  45.2039 0001899  92.3579 267.7768 13.15549469 59975
ONEWEB-0637             
1 56078U 23043AJ  24165.70906320  .00000048  00000+0  93699-4 0  9994
2 56078  87.9045  45.1816 0001841  94.5195 265.6146 13.15548468 59990
ONEWEB-0647             
1 56079U 23043AK  24165.70431632 -.00000025  00000+0 -99241-4 0  9990
2 56079  87.9043  45.2012 0001992  89.9014 270.2345 13.15549343 59988
ONEWEB-0651             
1 56080U 23043AL  24165.69955925 -.00000070  00000+0 -21904-3 0  9996
2 56080  87.9047  45.1788 0001673  93.0712 267.0610 13.15548761 61187
ONEWEB-0718             
1 56081U 23043AM  24165.69480441 -.00000057  00000+0 -18542-3 0  9992
2 56081  87.9047  45.1660 0001701  62.0325 298.0978 13.15550229 59994
ONEWEB-0561             
1 56710U 23068A   24165.72052026  .00000094  00000+0  19984-3 0  9996
2 56710  87.9229  60.4056 0002134  99.4571 260.6803 13.20769654 52683
